ONEWEB-0325             
1 49194U 21083J   22155.54383660  .00000081  00000+0  17164-3 0  9991
2 49194  87.9122 268.1576 0001763 129.7626 230.3662 13.18690752 35791
ONEWEB-0326             
1 49195U 21083K   22155.55468580  .00000124  00000+0  28166-3 0  9990
2 49195  87.9120 268.2518 0002729 100.4945 259.6495 13.18685566 35784
ONEWEB-0327             
1 49196U 21083L   22155.53918991  .00000111  00000+0  24885-3 0  9995
2 49196  87.9137 268.2247 0002870  97.9251 262.2207 13.18689988 35805
ONEWEB-0328             
1 49197U 21083M   22155.56630988  .00000337  00000+0  88713-3 0  9996
2 49197  87.8974 252.9760 0002132 105.6466 254.4899 13.13468440 37456
ONEWEB-0331             
1 49198U 21083N   22155.55002795  .00000058  00000+0  11346-3 0  9993
2 49198  87.9134 268.2667 0002390 102.0797 258.0603 13.18687443 35795
ONEWEB-0333             
1 49199U 21083P   22155.56181488  .00000351  00000+0  92596-3 0  9994
2 49199  87.8969 252.9789 0001610 105.3245 254.8062 13.13467272 37464
ONEWEB-0334             
1 49200U 21083Q   22155.48791917  .00001066  00000+0  10738-3 0  9994
2 49200  87.2059 234.9983 0003864  51.7054 308.4521 14.90144643 39224
ONEWEB-0335             
1 49201U 21083R   22155.55732520  .00000355  00000+0  93669-3 0  9992
2 49201  87.9172 252.9673 0002270 107.0121 253.1257 13.13472338 37470
ONEWEB-0336             
1 49202U 21083S   22155.52597173 -.00000222  00000+0 -64346-3 0  9998
2 49202  87.9149 252.9692 0001897 103.4277 256.7064 13.13470305 37468
ONEWEB-0337             
1 49203U 21083T   22155.54835674 -.00000419  00000+0 -11834-2 0  9993
2 49203  87.9173 252.9519 0002160 108.5792 251.5572 13.13471861 37461
ONEWEB-0338             
1 49204U 21083U   22155.50634629  .00001307  00000+0  13225-3 0  9999
2 49204  87.2120 235.1878 0004851  70.1598 290.0152 14.90159538 39212
ONEWEB-0339             
1 49205U 21083V   22155.54388184 -.00000028  00000+0 -11261-3 0  9995
2 49205  87.8969 252.9770 0001768 115.9955 244.1356 13.13467259 37442
ONEWEB-0340             
1 49206U 21083W   22155.53764210  .00000035  00000+0  56782-4 0  9997
2 49206  87.9125 268.2674 0002108 106.9860 253.1503 13.18687333 35753
ONEWEB-0341             
1 49207U 21083X   22155.54537480  .00000144  00000+0  33159-3 0  9999
2 49207  87.9146 268.1786 0002279 132.6467 227.4858 13.18684877 35777
ONEWEB-0342             
1 49208U 21083Y   22155.47506265  .00001239  00000+0  12525-3 0  9999
2 49208  87.2079 235.0712 0004971  69.5558 290.6203 14.90168653 39217
ONEWEB-0343             
1 49209U 21083Z   22155.54227768  .00000053  00000+0  10167-3 0  9999
2 49209  87.9137 268.2253 0001983 144.9991 215.1271 13.18689162 35829
ONEWEB-0344             
1 49210U 21083AA  22155.51254869  .00000010  00000+0 -81843-5 0  9995
2 49210  87.8969 252.9868 0002031 104.0655 256.0700 13.13472525 37443
ONEWEB-0345             
1 49211U 21083AB  22155.53045620 -.00000217  00000+0 -62978-3 0  9997
2 49211  87.8956 252.9824 0002728 112.0851 248.0568 13.13473786 37456
ONEWEB-0346             
1 49212U 21083AC  22155.54847356  .00000048  00000+0  89402-4 0  9997
2 49212  87.9132 268.2168 0002588 100.4854 259.6569 13.18684581 35766
ONEWEB-0348             
1 49213U 21083AD  22155.48307222  .00001182  00000+0  11935-3 0  9999
2 49213  87.2106 235.1520 0004200  63.9504 296.2155 14.90164871 39212
ONEWEB-0350             
1 49214U 21083AE  22155.53941817 -.00000122  00000+0 -36844-3 0  9991
2 49214  87.9029 252.9977 0002707 119.0167 241.1234 13.13471201 37481
ONEWEB-0351             
1 49215U 21083AF  22155.45967408  .00001233  00000+0  12465-3 0  9992
2 49215  87.2040 234.9387 0003607  57.7424 302.4152 14.90150011 39219
ONEWEB-0352             
1 49216U 21083AG  22155.52147426 -.00000175  00000+0 -51331-3 0  9992
2 49216  87.8966 252.9844 0001645  96.3035 263.8282 13.13467346 37575
ONEWEB-0354             
1 49217U 21083AH  22155.47962196  .00001180  00000+0  11916-3 0  9996
2 49217  87.2088 235.0907 0003602  71.9570 288.2050 14.90160872 39223
ONEWEB-0355             
1 49218U 21083AJ  22155.55285753  .00000278  00000+0  72764-3 0  9998
2 49218  87.9133 252.9662 0001831 114.5456 245.5864 13.13472068 37456
ONEWEB-0357             
1 49219U 21083AK  22155.49111295  .00001248  00000+0  12620-3 0  9994
2 49219  87.2085 235.0804 0004994  70.7195 289.4573 14.90167348 39210
ONEWEB-0332             
1 49279U 21090A   22155.50511672 -.00000015  00000+0 -73822-4 0  9998
2 49279  87.9061 222.5993 0001295  96.9349 263.1928 13.14501259 33977
ONEWEB-0347             
1 49280U 21090B   22155.54425892  .00000133  00000+0  43129-4 0  9998
2 49280  87.6953 220.2030 0003754 144.1386 216.0063 14.31646995 34393
ONEWEB-0349             
1 49281U 21090C   22155.40052275 -.00257137  00000+0 -40196-1 0  9993
2 49281  87.2754 211.0276 0007035 185.9652 174.1485 14.74519904 34842
ONEWEB-0353             
1 49282U 21090D   22155.42059457  .00000159  00000+0  39411-3 0  9993
2 49282  87.9113 222.6250 0001588  90.3012 269.8300 13.14511350 33965
ONEWEB-0356             
1 49283U 21090E   22155.16893888 -.00188771  00000+0 -28483-1 0  9993
2 49283  87.2678 211.0983 0004960 121.6533 238.5171 14.75622218 34800
ONEWEB-0358             
1 49284U 21090F   22155.49003639  .00001510  00000+0  15901-3 0  9993
2 49284  87.5229 215.2698 0002992 135.0050 225.1420 14.88700062 34808
ONEWEB-0359             
1 49285U 21090G   22155.40865159  .00000746  00000+0  77112-4 0  9991
2 49285  87.5255 215.3028 0002932 125.2689 234.8813 14.88692024 34787
ONEWEB-0360             
1 49286U 21090H   22154.15159377 -.00251550  00000+0 -36120-1 0  9995
2 49286  87.2683 211.4604 0002718 166.3567 193.7728 14.78135706 34652
ONEWEB-0361             
1 49287U 21090J   22155.49092361 -.00302074  00000+0 -47069-1 0  9995
2 49287  87.2757 211.0015 0002087  93.5461 266.5998 14.74967970 35314
ONEWEB-0362             
1 49288U 21090K   22155.52792806  .00000099  00000+0  21578-3 0  9990
2 49288  87.9129 237.8424 0001918  89.2898 270.8454 13.19723109 32542
ONEWEB-0363             
1 49289U 21090L   22154.89951524 -.00200201  00000+0 -28718-1 0  9994
2 49289  87.2639 211.2465 0006030 122.8426 237.3377 14.77844606 35225
ONEWEB-0364             
1 49290U 21090M   22155.45553702 -.00000977  00000+0 -40302-3 0  9998
2 49290  87.6896 220.3604 0003257 112.5867 247.5671 14.27807381 34813
ONEWEB-0365             
1 49291U 21090N   22155.45828317  .00000056  00000+0  10846-3 0  9992
2 49291  87.9237 237.8453 0002038 104.7602 255.3756 13.19724122 32042
ONEWEB-0366             
1 49292U 21090P   22155.41634007  .00000206  00000+0  51983-3 0  9994
2 49292  87.9087 222.6225 0001805  88.9044 271.2293 13.14505707 33943
ONEWEB-0367             
1 49293U 21090Q   22154.90063100 -.00264908  00000+0 -38956-1 0  9994
2 49293  87.2671 211.3105 0002349 137.0837 223.0568 14.77207721 34753
ONEWEB-0368             
1 49294U 21090R   22155.43010616  .00000078  00000+0  24460-4 0  9990
2 49294  87.6916 220.3225 0002584 154.3476 205.7847 14.27795771 34349
ONEWEB-0369             
1 49295U 21090S   22155.45520648  .00000186  00000+0  43135-3 0  9993
2 49295  87.9249 237.8056 0001890  94.1648 265.9701 13.19725728 32034
ONEWEB-0370             
1 49296U 21090T   22155.48879516 -.00333514  00000+0 -51028-1 0  9992
2 49296  87.2812 210.9489 0002503 159.2637 200.8685 14.75945702 34860
ONEWEB-0371             
1 49297U 21090U   22155.46138177  .00000072  00000+0  14838-3 0  9990
2 49297  87.9240 237.7424 0002112 103.9426 256.1941 13.19724201 32073
ONEWEB-0372             
1 49298U 21090V   22154.18039180 -.00515963  00000+0 -79858-1 0  9996
2 49298  87.2635 211.3999 0003194  99.9018 260.2563 14.75696120 34655
ONEWEB-0373             
1 49299U 21090W   22155.43356961  .00000154  00000+0  51091-4 0  9996
2 49299  87.6913 220.2017 0003900 197.2190 162.8875 14.31650243 34377
ONEWEB-0374             
1 49300U 21090X   22155.49038336 -.00014942  00000+0 -40336-1 0  9997
2 49300  87.9114 222.6111 0002207  81.7891 278.3489 13.14615796 33952
ONEWEB-0375             
1 49301U 21090Y   22155.41880554  .00001077  00000+0  11262-3 0  9998
2 49301  87.5192 215.2313 0003237 147.0878 213.0551 14.88693744 34781
ONEWEB-0376             
1 49302U 21090Z   22155.45983703  .00000093  00000+0  19984-3 0  9999
2 49302  87.9243 237.8215 0001765  97.4398 262.6935 13.19726299 32074
ONEWEB-0377             
1 49303U 21090AA  22155.40661392  .00001188  00000+0  12454-3 0  9993
2 49303  87.5173 215.3093 0003002 113.4748 246.6795 14.88696873 34778
ONEWEB-0378             
1 49304U 21090AB  22155.47646517 -.00302767  00000+0 -52121-1 0  9995
2 49304  87.2896 210.8599 0005245 146.9098 213.2448 14.70640372 34857
ONEWEB-0379             
1 49305U 21090AC  22155.47342310  .00000274  00000+0  70397-3 0  9993
2 49305  87.9091 222.6055 0001835  93.6377 266.4962 13.14504955 33953
ONEWEB-0380             
1 49306U 21090AD  22155.45673785  .00000050  00000+0  91786-4 0  9993
2 49306  87.9243 237.8282 0002123 108.4601 251.6763 13.19726380 32046
ONEWEB-0381             
1 49307U 21090AE  22155.15172599 -.00219925  00000+0 -32754-1 0  9990
2 49307  87.2776 211.1881 0003348 136.4345 223.7140 14.76382343 34791
ONEWEB-0382             
1 49308U 21090AF  22154.09516603 -.00547801  00000+0 -88235-1 0  9993
2 49308  87.2640 211.3987 0006833  68.6441 291.5506 14.74106797 34644
ONEWEB-0383             
1 49309U 21090AG  22155.47129271  .00000172  00000+0  43082-3 0  9994
2 49309  87.9079 222.5535 0002061  88.0016 272.1350 13.14499532 33987
ONEWEB-0384             
1 49310U 21090AH  22154.16337348 -.00561503  00000+0 -91135-1 0  9999
2 49310  87.2709 211.3740 0009167  89.0849 271.1420 14.73820313 34658
ONEWEB-0385             
1 49311U 21090AJ  22155.45877360 -.00325476  00000+0 -55499-1 0  9996
2 49311  87.2892 210.8135 0004580 157.8506 202.2910 14.71206469 34839
